HIMAWARI-8              
1 40267U 14060A   24085.85689456 -.00000271  00000+0  00000+0 0  9999
2 40267   0.0221 182.7537 0000813 201.6420 248.5444  1.00272719 34700
